[
    {
        "Altitude(m)": 565808.5088173589,
        "Argument of Periapsis(deg)": -0.015068773855314936,
        "Eccentricity": 0.0,
        "Inclination(deg)": 97.0,
        "Latitude(deg)": 7.1513272862813,
        "Longitude(deg)": 109.32487795508564,
        "Mean Anomaly(deg)": 172.73359551279165,
        "RAAN(deg)": 30.003964702412336,
        "Satellite Name": "Starlink Shell 3 1666",
        "Satellite Number": 1666,
        "Semi-Major Axis(m)": 6938478.169268562,
        "Time(s)": 380
    },
    {
        "Altitude(m)": 565842.3647820473,
        "Argument of Periapsis(deg)": -0.015465320535717962,
        "Eccentricity": 0.0,
        "Inclination(deg)": 97.0,
        "Latitude(deg)": 6.5269544903061,
        "Longitude(deg)": 109.20585133299406,
        "Mean Anomaly(deg)": 173.3590717104967,
        "RAAN(deg)": 30.004069036686346,
        "Satellite Name": "Starlink Shell 3 1666",
        "Satellite Number": 1666,
        "Semi-Major Axis(m)": 6938478.169268562,
        "Time(s)": 390
    },
    {
        "Altitude(m)": 565880.505610409,
        "Argument of Periapsis(deg)": -0.015861867216120987,
        "Eccentricity": 0.0,
        "Inclination(deg)": 97.0,
        "Latitude(deg)": 5.902564897522427,
        "Longitude(deg)": 109.08701656901307,
        "Mean Anomaly(deg)": 173.98454790820173,
        "RAAN(deg)": 30.004173370960352,
        "Satellite Name": "Starlink Shell 3 1666",
        "Satellite Number": 1666,
        "Semi-Major Axis(m)": 6938478.169268562,
        "Time(s)": 400
    },
    {
        "Altitude(m)": 565922.9419613304,
        "Argument of Periapsis(deg)": -0.01625841389652401,
        "Eccentricity": 0.0,
        "Inclination(deg)": 97.0,
        "Latitude(deg)": 5.278161531370143,
        "Longitude(deg)": 108.96835525534966,
        "Mean Anomaly(deg)": 174.61002410590677,
        "RAAN(deg)": 30.00427770523436,
        "Satellite Name": "Starlink Shell 3 1666",
        "Satellite Number": 1666,
        "Semi-Major Axis(m)": 6938478.169268562,
        "Time(s)": 410
    },
    {
        "Altitude(m)": 565969.6824456067,
        "Argument of Periapsis(deg)": -0.016654960576927034,
        "Eccentricity": 0.0,
        "Inclination(deg)": 97.0,
        "Latitude(deg)": 4.653747412025917,
        "Longitude(deg)": 108.84984864451457,
        "Mean Anomaly(deg)": 175.23550030361181,
        "RAAN(deg)": 30.00438203950838,
        "Satellite Name": "Starlink Shell 3 1666",
        "Satellite Number": 1666,
        "Semi-Major Axis(m)": 6938478.169268562,
        "Time(s)": 420
    },
    {
        "Altitude(m)": 566020.7336181971,
        "Argument of Periapsis(deg)": -0.01705150725733006,
        "Eccentricity": 0.0,
        "Inclination(deg)": 97.0,
        "Latitude(deg)": 4.029325556573268,
        "Longitude(deg)": 108.73147813557392,
        "Mean Anomaly(deg)": 175.86097650131686,
        "RAAN(deg)": 30.004486373782377,
        "Satellite Name": "Starlink Shell 3 1666",
        "Satellite Number": 1666,
        "Semi-Major Axis(m)": 6938478.169268562,
        "Time(s)": 430
    },
    {
        "Altitude(m)": 566076.0999715531,
        "Argument of Periapsis(deg)": -0.017448053937733084,
        "Eccentricity": 0.0,
        "Inclination(deg)": 97.0,
        "Latitude(deg)": 3.404898979150573,
        "Longitude(deg)": 108.61322576069442,
        "Mean Anomaly(deg)": 176.48645269902192,
        "RAAN(deg)": 30.004590708056394,
        "Satellite Name": "Starlink Shell 3 1666",
        "Satellite Number": 1666,
        "Semi-Major Axis(m)": 6938478.169268562,
        "Time(s)": 440
    },
    {
        "Altitude(m)": 566135.783929941,
        "Argument of Periapsis(deg)": -0.017844600618136107,
        "Eccentricity": 0.0,
        "Inclination(deg)": 97.0,
        "Latitude(deg)": 2.7804706910806467,
        "Longitude(deg)": 108.49507315907172,
        "Mean Anomaly(deg)": 177.11192889672697,
        "RAAN(deg)": 30.004695042330404,
        "Satellite Name": "Starlink Shell 3 1666",
        "Satellite Number": 1666,
        "Semi-Major Axis(m)": 6938478.169268562,
        "Time(s)": 450
    },
    {
        "Altitude(m)": 566199.7858448826,
        "Argument of Periapsis(deg)": -0.018241147298539134,
        "Eccentricity": 0.0,
        "Inclination(deg)": 97.0,
        "Latitude(deg)": 2.1560437009826705,
        "Longitude(deg)": 108.37700206395377,
        "Mean Anomaly(deg)": 177.737405094432,
        "RAAN(deg)": 30.00479937660441,
        "Satellite Name": "Starlink Shell 3 1666",
        "Satellite Number": 1666,
        "Semi-Major Axis(m)": 6938478.169268562,
        "Time(s)": 460
    },
    {
        "Altitude(m)": 566268.1039915964,
        "Argument of Periapsis(deg)": -0.018637693978942157,
        "Eccentricity": 0.0,
        "Inclination(deg)": 97.0,
        "Latitude(deg)": 1.531621014871056,
        "Longitude(deg)": 108.25899478985068,
        "Mean Anomaly(deg)": 178.36288129213705,
        "RAAN(deg)": 30.00490371087842,
        "Satellite Name": "Starlink Shell 3 1666",
        "Satellite Number": 1666,
        "Semi-Major Axis(m)": 6938478.169268562,
        "Time(s)": 470
    },
    {
        "Altitude(m)": 566340.7345665032,
        "Argument of Periapsis(deg)": -0.019034240659345183,
        "Eccentricity": 0.0,
        "Inclination(deg)": 97.0,
        "Latitude(deg)": 0.9072056362433678,
        "Longitude(deg)": 108.1410332070237,
        "Mean Anomaly(deg)": 178.9883574898421,
        "RAAN(deg)": 30.00500804515243,
        "Satellite Name": "Starlink Shell 3 1666",
        "Satellite Number": 1666,
        "Semi-Major Axis(m)": 6938478.169268562,
        "Time(s)": 480
    },
    {
        "Altitude(m)": 566417.6716858204,
        "Argument of Periapsis(deg)": -0.019430787339748207,
        "Eccentricity": 0.0,
        "Inclination(deg)": 97.0,
        "Latitude(deg)": 0.2828005661592738,
        "Longitude(deg)": 108.0230992289664,
        "Mean Anomaly(deg)": 179.61383368754713,
        "RAAN(deg)": 30.005112379426436,
        "Satellite Name": "Starlink Shell 3 1666",
        "Satellite Number": 1666,
        "Semi-Major Axis(m)": 6938478.169268562,
        "Time(s)": 490
    },
    {
        "Altitude(m)": 566498.9073851737,
        "Argument of Periapsis(deg)": -0.019827334020151237,
        "Eccentricity": 0.0,
        "Inclination(deg)": 97.0,
        "Latitude(deg)": -0.34159119668659416,
        "Longitude(deg)": 107.90517529997145,
        "Mean Anomaly(deg)": 180.2393098852522,
        "RAAN(deg)": 30.005216713700445,
        "Satellite Name": "Starlink Shell 3 1666",
        "Satellite Number": 1666,
        "Semi-Major Axis(m)": 6938478.169268562,
        "Time(s)": 500
    },
    {
        "Altitude(m)": 566584.431620293,
        "Argument of Periapsis(deg)": -0.020223880700554257,
        "Eccentricity": 0.0,
        "Inclination(deg)": 97.0,
        "Latitude(deg)": -0.9659666558939541,
        "Longitude(deg)": 107.78724336987669,
        "Mean Anomaly(deg)": 180.86478608295718,
        "RAAN(deg)": 30.005321047974455,
        "Satellite Name": "Starlink Shell 3 1666",
        "Satellite Number": 1666,
        "Semi-Major Axis(m)": 6938478.169268562,
        "Time(s)": 510
    },
    {
        "Altitude(m)": 566674.2322687645,
        "Argument of Periapsis(deg)": -0.020620427380957283,
        "Eccentricity": 0.0,
        "Inclination(deg)": 97.0,
        "Latitude(deg)": -1.5903228172882882,
        "Longitude(deg)": 107.66928538170458,
        "Mean Anomaly(deg)": 181.49026228066225,
        "RAAN(deg)": 30.00542538224846,
        "Satellite Name": "Starlink Shell 3 1666",
        "Satellite Number": 1666,
        "Semi-Major Axis(m)": 6938478.169268562,
        "Time(s)": 520
    },
    {
        "Altitude(m)": 566768.2951328213,
        "Argument of Periapsis(deg)": -0.021016974061360306,
        "Eccentricity": 0.0,
        "Inclination(deg)": 97.0,
        "Latitude(deg)": -2.21465668884968,
        "Longitude(deg)": 107.5512837592888,
        "Mean Anomaly(deg)": 182.1157384783673,
        "RAAN(deg)": 30.00552971652247,
        "Satellite Name": "Starlink Shell 3 1666",
        "Satellite Number": 1666,
        "Semi-Major Axis(m)": 6938478.169268562,
        "Time(s)": 530
    },
    {
        "Altitude(m)": 566866.6039432099,
        "Argument of Periapsis(deg)": -0.021413520741763333,
        "Eccentricity": 0.0,
        "Inclination(deg)": 97.0,
        "Latitude(deg)": -2.838965280637084,
        "Longitude(deg)": 107.43322038198207,
        "Mean Anomaly(deg)": 182.74121467607233,
        "RAAN(deg)": 30.005634050796484,
        "Satellite Name": "Starlink Shell 3 1666",
        "Satellite Number": 1666,
        "Semi-Major Axis(m)": 6938478.169268562,
        "Time(s)": 540
    },
    {
        "Altitude(m)": 566969.1403641098,
        "Argument of Periapsis(deg)": -0.021810067422166356,
        "Eccentricity": 0.0,
        "Inclination(deg)": 97.0,
        "Latitude(deg)": -3.463245604706098,
        "Longitude(deg)": 107.31507707215879,
        "Mean Anomaly(deg)": 183.36669087377737,
        "RAAN(deg)": 30.005738385070487,
        "Satellite Name": "Starlink Shell 3 1666",
        "Satellite Number": 1666,
        "Semi-Major Axis(m)": 6938478.169268562,
        "Time(s)": 550
    },
    {
        "Altitude(m)": 567075.8839990787,
        "Argument of Periapsis(deg)": -0.022206614102569383,
        "Eccentricity": 0.0,
        "Inclination(deg)": 97.0,
        "Latitude(deg)": -4.087494675017039,
        "Longitude(deg)": 107.19683608260635,
        "Mean Anomaly(deg)": 183.9921670714824,
        "RAAN(deg)": 30.0058427193445,
        "Satellite Name": "Starlink Shell 3 1666",
        "Satellite Number": 1666,
        "Semi-Major Axis(m)": 6938478.169268562,
        "Time(s)": 560
    }
]